{
  "norad_id": 60506,
  "name": "LUR-1",
  "history": [
    {
      "epoch": "2026-03-28T18:38:34.309536Z",
      "apogee_km": 481.1377250245014,
      "perigee_km": 476.599484435068,
      "latitude_deg": -7.171166230022659e-05,
      "longitude_deg": 61.408781746265035,
      "height_km": 483.93580611262746,
      "semi_major_axis_km": 6857.005604729785,
      "eccentricity": 0.00033092,
      "inclination_deg": 97.3772,
      "raan_deg": 167.2441,
      "arg_perigee_deg": 210.1992,
      "mean_anomaly_deg": 149.9057,
      "mean_motion_rev_day": 15.28977186
    },
    {
      "epoch": "2026-03-29T04:04:01.080480Z",
      "apogee_km": 481.12254742796995,
      "perigee_km": 476.5489466057106,
      "latitude_deg": 2.8800729483675243e-05,
      "longitude_deg": -79.95051095554874,
      "height_km": 483.9467786231572,
      "semi_major_axis_km": 6856.97274701684,
      "eccentricity": 0.0003335,
      "inclination_deg": 97.3772,
      "raan_deg": 167.6334,
      "arg_perigee_deg": 208.742,
      "mean_anomaly_deg": 151.3637,
      "mean_motion_rev_day": 15.28988176
    },
    {
      "epoch": "2026-03-30T03:37:37.149888Z",
      "apogee_km": 481.12387056714215,
      "perigee_km": 476.41728920430796,
      "latitude_deg": -1.2230661376225628e-05,
      "longitude_deg": -73.34506988634872,
      "height_km": 484.01145771592684,
      "semi_major_axis_km": 6856.907579885725,
      "eccentricity": 0.0003432,
      "inclination_deg": 97.377,
      "raan_deg": 168.6067,
      "arg_perigee_deg": 204.8713,
      "mean_anomaly_deg": 155.2362,
      "mean_motion_rev_day": 15.29009973
    },
    {
      "epoch": "2026-03-30T05:11:51.511488Z",
      "apogee_km": 481.1196319037781,
      "perigee_km": 476.41442435967383,
      "latitude_deg": 2.7183452690279953e-05,
      "longitude_deg": -96.90451943538802,
      "height_km": 484.0169650738832,
      "semi_major_axis_km": 6856.904028131726,
      "eccentricity": 0.0003431,
      "inclination_deg": 97.3772,
      "raan_deg": 168.6716,
      "arg_perigee_deg": 204.3018,
      "mean_anomaly_deg": 155.8061,
      "mean_motion_rev_day": 15.29011161
    }
  ]
}